{
  "norad_id": 57702,
  "name": "STARLINK-30333",
  "history": [
    {
      "epoch": "2026-03-28T18:19:07.967424Z",
      "apogee_km": 483.61466117864256,
      "perigee_km": 482.45580918811993,
      "latitude_deg": 3.455545256262275e-05,
      "longitude_deg": -91.10882628639071,
      "height_km": 482.241813232154,
      "semi_major_axis_km": 6861.172235183381,
      "eccentricity": 8.445e-05,
      "inclination_deg": 43.0021,
      "raan_deg": 9.8534,
      "arg_perigee_deg": 349.2718,
      "mean_anomaly_deg": 10.8116,
      "mean_motion_rev_day": 15.27584629
    },
    {
      "epoch": "2026-03-29T03:44:04.862112Z",
      "apogee_km": 483.7559349437024,
      "perigee_km": 482.3466468687502,
      "latitude_deg": -2.18930798418095e-05,
      "longitude_deg": 125.04805897205186,
      "height_km": 482.5375385884997,
      "semi_major_axis_km": 6861.188290906226,
      "eccentricity": 0.0001027,
      "inclination_deg": 43.0013,
      "raan_deg": 7.6341,
      "arg_perigee_deg": 294.3243,
      "mean_anomaly_deg": 65.7501,
      "mean_motion_rev_day": 15.27579267
    }
  ]
}